{
  "norad_id": 67993,
  "name": "STARLINK-36975",
  "history": [
    {
      "epoch": "2026-04-13T00:32:16.850400Z",
      "apogee_km": 484.17639401560155,
      "perigee_km": 481.8268657031922,
      "latitude_deg": -2.2701205828089898e-05,
      "longitude_deg": 5.799101081262081,
      "height_km": 483.0395050325952,
      "semi_major_axis_km": 6861.138629859397,
      "eccentricity": 0.00017122,
      "inclination_deg": 42.9983,
      "raan_deg": 215.0885,
      "arg_perigee_deg": 257.1543,
      "mean_anomaly_deg": 102.9117,
      "mean_motion_rev_day": 15.27595852
    },
    {
      "epoch": "2026-04-14T14:12:02.726208Z",
      "apogee_km": 484.087163295183,
      "perigee_km": 482.065849796154,
      "latitude_deg": 1.3506839143007011e-05,
      "longitude_deg": 150.4506380614429,
      "height_km": 482.96375699594654,
      "semi_major_axis_km": 6861.213506545668,
      "eccentricity": 0.0001473,
      "inclination_deg": 42.9979,
      "raan_deg": 206.2279,
      "arg_perigee_deg": 263.709,
      "mean_anomaly_deg": 96.3594,
      "mean_motion_rev_day": 15.27570846
    },
    {
      "epoch": "2026-04-15T13:44:23.381376Z",
      "apogee_km": 483.97625318090195,
      "perigee_km": 482.0523863508406,
      "latitude_deg": -4.696757427136888e-06,
      "longitude_deg": 150.85944191894285,
      "height_km": 482.82938745987644,
      "semi_major_axis_km": 6861.151319765871,
      "eccentricity": 0.0001402,
      "inclination_deg": 42.9994,
      "raan_deg": 200.6895,
      "arg_perigee_deg": 267.7099,
      "mean_anomaly_deg": 92.3592,
      "mean_motion_rev_day": 15.27591614
    },
    {
      "epoch": "2026-04-16T14:50:53.722176Z",
      "apogee_km": 483.98165923029046,
      "perigee_km": 482.1071844658418,
      "latitude_deg": -1.7760627704638802e-05,
      "longitude_deg": 127.29344351622272,
      "height_km": 482.7746548218919,
      "semi_major_axis_km": 6861.181421848066,
      "eccentricity": 0.0001366,
      "inclination_deg": 43.0007,
      "raan_deg": 194.7811,
      "arg_perigee_deg": 272.8454,
      "mean_anomaly_deg": 87.2241,
      "mean_motion_rev_day": 15.27581561
    },
    {
      "epoch": "2026-04-17T22:14:01.297824Z",
      "apogee_km": 484.1555820142621,
      "perigee_km": 481.8802858150775,
      "latitude_deg": -3.9761247002723445e-05,
      "longitude_deg": 7.83790252033126,
      "height_km": 482.79905920588743,
      "semi_major_axis_km": 6861.1549339146695,
      "eccentricity": 0.00016581,
      "inclination_deg": 42.9989,
      "raan_deg": 187.3961,
      "arg_perigee_deg": 269.7817,
      "mean_anomaly_deg": 90.2844,
      "mean_motion_rev_day": 15.27590407
    },
    {
      "epoch": "2026-04-18T12:21:26.371584Z",
      "apogee_km": 484.1026320160545,
      "perigee_km": 482.0525011035661,
      "latitude_deg": 2.9139367775394716e-05,
      "longitude_deg": 152.08096514332055,
      "height_km": 482.62747831825845,
      "semi_major_axis_km": 6861.21456655981,
      "eccentricity": 0.0001494,
      "inclination_deg": 42.9991,
      "raan_deg": 184.0736,
      "arg_perigee_deg": 282.7808,
      "mean_anomaly_deg": 77.2877,
      "mean_motion_rev_day": 15.27570492
    }
  ]
}